     2              NAVIGATION DATA                         RINEX VERSION / TYPE
CCRINEXN V1.6.0 UX  CDDIS               04-MAY-24 23:31     PGM / RUN BY / DATE 
IGS BROADCAST EPHEMERIS FILE                                COMMENT             
    0.1956D-07  0.2235D-07 -0.1192D-06 -0.1192D-06          ION ALPHA           
    0.1208D+06  0.9830D+05 -0.1966D+06 -0.6554D+05          ION BETA            
    0.931322574615D-09 0.532907051820D-14    61440     2313 DELTA-UTC: A0,A1,T,W
    18                                                      LEAP SECONDS        
                                                            END OF HEADER       
 8 24  5  3 17 59 44.0 0.158218666911D-03 0.212594386539D-10 0.000000000000D+00
    0.900000000000D+01-0.342187500000D+02 0.501449458811D-08-0.259471270027D+01
   -0.192224979401D-05 0.946067227051D-02 0.624358654022D-05 0.515362418747D+04
    0.496784000000D+06-0.124797224999D-06 0.143949265880D+01-0.247731804848D-06
    0.953286599368D+00 0.257187500000D+03 0.358799183872D+00-0.834677624816D-08
   -0.335728270144D-09 0.100000000000D+01 0.231200000000D+04 0.000000000000D+00
    0.200000000000D+01 0.000000000000D+00 0.465661287308D-08 0.900000000000D+01
    0.495168000000D+06 0.400000000000D+01 0.000000000000D+00 0.000000000000D+00
24 24  5  3 17 59 44.0-0.466081313789D-03-0.386535248253D-11 0.000000000000D+00
    0.420000000000D+02-0.281562500000D+02 0.483591572101D-08 0.186724851540D+01
   -0.146590173244D-05 0.152273938293D-01 0.129453837872D-04 0.515372570801D+04
    0.496784000000D+06-0.290572643280D-06-0.717178971074D+00-0.217929482460D-06
    0.934018337110D+00 0.115281250000D+03 0.975641750435D+00-0.821248494011D-08
    0.150720563831D-09 0.100000000000D+01 0.231200000000D+04 0.000000000000D+00
    0.200000000000D+01 0.000000000000D+00 0.232830643654D-08 0.420000000000D+02
    0.489618000000D+06 0.400000000000D+01 0.000000000000D+00 0.000000000000D+00
28 24  5  3 17 59 44.0-0.228682532907D-03-0.158024704433D-10 0.000000000000D+00
    0.166000000000D+03-0.221875000000D+02 0.420910389750D-08-0.609087178469D+00
   -0.106729567051D-05 0.387696432881D-03 0.120699405670D-04 0.515364599991D+04
    0.496784000000D+06-0.372529029846D-08-0.653933720701D+00 0.558793544769D-08
    0.961490529849D+00 0.147375000000D+03 0.174849947138D+01-0.782211153663D-08
    0.147506144223D-09 0.100000000000D+01 0.231200000000D+04 0.000000000000D+00
    0.200000000000D+01 0.000000000000D+00-0.931322574616D-08 0.422000000000D+03
    0.489618000000D+06 0.400000000000D+01 0.000000000000D+00 0.000000000000D+00
32 24  5  3 17 59 44.0-0.618423800916D-03 0.000000000000D+00 0.000000000000D+00
    0.360000000000D+02-0.870000000000D+02 0.457769067919D-08-0.186219007238D+01
   -0.448897480965D-05 0.776504492387D-02 0.585243105888D-05 0.515366671562D+04
    0.496784000000D+06 0.214204192162D-06-0.167863029911D+01-0.178813934326D-06
    0.961384052819D+00 0.268375000000D+03-0.213628250465D+01-0.813248160764D-08
   -0.285369029623D-09 0.100000000000D+01 0.231200000000D+04 0.000000000000D+00
    0.200000000000D+01 0.000000000000D+00 0.931322574616D-09 0.360000000000D+02
    0.492072000000D+06 0.400000000000D+01 0.000000000000D+00 0.000000000000D+00
 1 24  5  3 18  0  0.0 0.278787221760D-03-0.454747350886D-11 0.000000000000D+00
    0.130000000000D+02 0.647187500000D+02 0.624704592882D-08-0.112529422059D+01
    0.366196036339D-05 0.134200617904D-01 0.592879951000D-05 0.515375290680D+04
    0.496800000000D+06 0.154599547386D-06 0.442263919485D+00 0.264495611191D-06
    0.954972672434D+00 0.261031250000D+03 0.103201983367D+01-0.841606484860D-08
    0.355729103259D-09 0.100000000000D+01 0.231200000000D+04 0.000000000000D+00
    0.200000000000D+01 0.630000000000D+02-0.195577740669D-07 0.130000000000D+02
    0.489618000000D+06 0.400000000000D+01 0.000000000000D+00 0.000000000000D+00
 2 24  5  3 18  0  0.0-0.442619435489D-03 0.659383658785D-11 0.000000000000D+00
    0.460000000000D+02 0.154375000000D+02 0.412660046090D-08-0.233689184058D+01
    0.985339283943D-06 0.159877593396D-01 0.106859952211D-04 0.515371053314D+04
    0.496800000000D+06 0.819563865662D-07 0.243681680377D+01 0.264495611191D-06
    0.967469843231D+00 0.174156250000D+03-0.119491315048D+01-0.763781814578D-08
   -0.807176479283D-10 0.100000000000D+01 0.231200000000D+04 0.000000000000D+00
    0.200000000000D+01 0.000000000000D+00-0.176951289177D-07 0.460000000000D+02
    0.492378000000D+06 0.400000000000D+01 0.000000000000D+00 0.000000000000D+00
 3 24  5  3 18  0  0.0 0.344335101545D-03 0.200088834390D-10 0.000000000000D+00
    0.330000000000D+02 0.395937500000D+02 0.420196074282D-08 0.419832608902D+00
    0.211969017983D-05 0.540759030264D-02 0.517629086971D-05 0.515373440933D+04
    0.496800000000D+06-0.335276126862D-07-0.271263512096D+01 0.726431608200D-07
    0.984241218855D+00 0.290906250000D+03 0.107507073905D+01-0.818069790176D-08
    0.180721813503D-09 0.100000000000D+01 0.231200000000D+04 0.000000000000D+00
    0.200000000000D+01 0.000000000000D+00 0.139698386192D-08 0.330000000000D+02
    0.491052000000D+06 0.400000000000D+01 0.000000000000D+00 0.000000000000D+00
 4 24  5  3 18  0  0.0 0.352947507054D-03 0.852651282912D-11 0.000000000000D+00
    0.226000000000D+03-0.784687500000D+02 0.448804408791D-08-0.291005653750D+01
   -0.410340726376D-05 0.282330880873D-02 0.664964318276D-05 0.515375565147D+04
    0.496800000000D+06-0.502914190292D-07-0.163379881176D+01 0.000000000000D+00
    0.964374361240D+00 0.253718750000D+03-0.294273513280D+01-0.814069623553D-08
   -0.258225041824D-09 0.100000000000D+01 0.231200000000D+04 0.000000000000D+00
    0.200000000000D+01 0.000000000000D+00-0.465661287308D-08 0.482000000000D+03
    0.489618000000D+06 0.400000000000D+01 0.000000000000D+00 0.000000000000D+00
 6 24  5  3 18  0  0.0 0.291567761451D-03-0.189857018995D-10 0.000000000000D+00
    0.100000000000D+01 0.336875000000D+02 0.370836875416D-08 0.171206164768D+01
    0.189989805222D-05 0.302642036695D-02 0.111106783152D-04 0.515361540985D+04
    0.496800000000D+06 0.335276126862D-07 0.253457140364D+01 0.149011611938D-07
    0.989844407221D+00 0.176156250000D+03-0.693623738567D+00-0.764281835406D-08
   -0.975040614355D-10 0.100000000000D+01 0.231200000000D+04 0.000000000000D+00
    0.200000000000D+01 0.000000000000D+00 0.372529029846D-08 0.257000000000D+03
    0.489618000000D+06 0.400000000000D+01 0.000000000000D+00 0.000000000000D+00
 7 24  5  3 18  0  0.0-0.120995566249D-03-0.829913915368D-11 0.000000000000D+00
    0.800000000000D+01 0.509375000000D+01 0.460840624433D-08 0.845702791899D+00
    0.359490513802D-06 0.184529848630D-01 0.122394412756D-04 0.515364807892D+04
    0.496800000000D+06-0.320374965668D-06-0.620561741733D+00 0.242143869400D-07
    0.950412491992D+00 0.143093750000D+03-0.212813819247D+01-0.824891502899D-08
   -0.425017703693D-10 0.100000000000D+01 0.231200000000D+04 0.000000000000D+00
    0.280000000000D+01 0.000000000000D+00-0.111758708954D-07 0.264000000000D+03
    0.489618000000D+06 0.400000000000D+01 0.000000000000D+00 0.000000000000D+00
 8 24  5  3 18  0  0.0 0.158220063895D-03 0.213731254917D-10 0.000000000000D+00
    0.670000000000D+02-0.342187500000D+02 0.501449458811D-08-0.259237939421D+01
   -0.192224979401D-05 0.946067378391D-02 0.624358654022D-05 0.515362418747D+04
    0.496800000000D+06-0.124797224999D-06 0.143949253445D+01-0.247731804848D-06
    0.953286594979D+00 0.257187500000D+03 0.358799710522D+00-0.834677624816D-08
   -0.335728270144D-09 0.100000000000D+01 0.231200000000D+04 0.000000000000D+00
    0.200000000000D+01 0.000000000000D+00 0.465661287308D-08 0.670000000000D+02
    0.489618000000D+06 0.400000000000D+01 0.000000000000D+00 0.000000000000D+00
 9 24  5  3 18  0  0.0 0.182962976396D-03 0.138697942020D-10 0.000000000000D+00
    0.230000000000D+02-0.792187500000D+02 0.473555439771D-08-0.213847763078D+01
   -0.417046248913D-05 0.267808756325D-02 0.652112066746D-05 0.515367358017D+04
    0.496800000000D+06 0.000000000000D+00-0.169316582681D+01 0.875443220139D-07
    0.957952820889D+00 0.251718750000D+03 0.199717917773D+01-0.826391565383D-08
   -0.317156067966D-09 0.100000000000D+01 0.231200000000D+04 0.000000000000D+00
    0.200000000000D+01 0.000000000000D+00 0.931322574616D-09 0.230000000000D+02
    0.492378000000D+06 0.400000000000D+01 0.000000000000D+00 0.000000000000D+00
10 24  5  3 18  0  0.0-0.172909349203D-04-0.579802872380D-11 0.000000000000D+00
    0.250000000000D+02 0.392500000000D+02 0.426124892669D-08-0.605558454752D+00
    0.195950269699D-05 0.930371927097D-02 0.540912151337D-05 0.515368463516D+04
    0.496800000000D+06 0.745058059692D-08-0.271520223352D+01 0.195577740669D-06
    0.983910460391D+00 0.286562500000D+03-0.236894502085D+01-0.823891461244D-08
    0.181793286706D-09 0.100000000000D+01 0.231200000000D+04 0.000000000000D+00
    0.200000000000D+01 0.000000000000D+00 0.232830643654D-08 0.250000000000D+02
    0.491868000000D+06 0.400000000000D+01 0.000000000000D+00 0.000000000000D+00
11 24  5  3 18  0  0.0-0.652988906950D-03-0.977706804406D-11 0.000000000000D+00
    0.146000000000D+03 0.425000000000D+02 0.416053044565D-08 0.298297146572D+01
    0.212341547012D-05 0.125253247097D-02 0.111460685730D-04 0.515370782852D+04
    0.496800000000D+06-0.745058059692D-08 0.256815318701D+01-0.931322574616D-08
    0.966364618862D+00 0.165281250000D+03-0.255897195557D+01-0.790425781549D-08
   -0.264296723305D-10 0.100000000000D+01 0.231200000000D+04 0.000000000000D+00
    0.200000000000D+01 0.000000000000D+00-0.884756445885D-08 0.914000000000D+03
    0.490098000000D+06 0.400000000000D+01 0.000000000000D+00 0.000000000000D+00
